ARIANE 44LP DEB         
1 25538U 88109E   24125.11878529  .00000809  00000+0  94641-2 0  9996
2 25538   7.2097  51.2658 7187715  75.7462   6.0571  2.23308848208797
